STARLINK-11089 [DTC]    
1 59426U 24065F   25179.54190245 -.00000148  00000+0  36345-5 0  9996
2 59426  53.1577 266.9528 0000897  47.9199 312.1895 15.69704254 71603
STARLINK-31757          
1 59427U 24065G   25178.98585791  .00000998  00000+0  45833-4 0  9991
2 59427  53.1601  24.7182 0002715  88.6584 271.4727 15.30201392 69925
STARLINK-31773          
1 59429U 24065J   25178.90207886 -.00007310  00000+0 -23502-3 0  9996
2 59429  53.1605  27.0329 0000757 115.1942 244.9138 15.30187338 69898
STARLINK-31772          
1 59430U 24065K   25179.55787035 -.00000813  00000+0 -15341-4 0  9993
2 59430  53.1613  21.8819 0001221  92.3160 267.7980 15.30185204 70014
STARLINK-31613          
1 59431U 24065L   25178.85206568 -.00000445  00000+0 -28937-5 0  9990
2 59431  53.1616  25.2981 0001185  96.3627 263.7509 15.30198779 69918
STARLINK-31780          
1 59432U 24065M   25179.57792148 -.00000593  00000+0 -79003-5 0  9999
2 59432  53.1598  22.0042 0001241  88.6617 271.4526 15.30189069 70017
STARLINK-31740          
1 59433U 24065N   25179.55312567 -.00002716  00000+0 -79651-4 0  9998
2 59433  53.1606  23.9875 0001190  80.8115 279.3020 15.30185744 69988
STARLINK-31580          
1 59434U 24065P   25179.56158679  .00028814  00000+0  98559-3 0  9994
2 59434  53.1610  24.0411 0000460 122.9684 237.1361 15.30054751 69983
STARLINK-31696          
1 59435U 24065Q   25178.84890271  .00000084  00000+0  14951-4 0  9990
2 59435  53.1625  25.2811 0001232  78.5356 281.5783 15.30189595 69916
STARLINK-31700          
1 59436U 24065R   25179.56103999  .00003965  00000+0  14602-3 0  9998
2 59436  53.1610  21.9024 0001290  62.4461 297.6671 15.30179110 70012
STARLINK-31706          
1 59437U 24065S   25178.90101831  .00004480  00000+0  16325-3 0  9996
2 59437  53.1627  27.0293 0001218  89.5765 270.5375 15.30210994 69894
STARLINK-31711          
1 59438U 24065T   25178.84573582  .00000194  00000+0  18695-4 0  9997
2 59438  53.1612  25.2568 0001278  92.6415 267.4733 15.30191728 69916
STARLINK-31708          
1 59439U 24065U   25178.96684754  .00002617  00000+0  10039-3 0  9990
2 59439  53.1611  24.5921 0000914 122.2148 237.8941 15.30213753 69926
STARLINK-31693          
1 59441U 24065W   25178.86156575 -.00000558  00000+0 -67185-5 0  9997
2 59441  53.1609  25.3529 0001068  80.4100 279.7022 15.30193015 69915
STARLINK-31622          
1 59456U 24068B   25178.63928391 -.00001112  00000+0 -30906-4 0  9991
2 59456  43.0043  35.1224 0001017 282.3661  77.7077 15.27575596 69517
STARLINK-31319          
1 59457U 24068C   25178.94228498 -.00001297  00000+0 -37626-4 0  9997
2 59457  42.9984  29.6365 0000481 320.5111  39.5706 15.27578681 69606
STARLINK-31625          
1 59458U 24068D   25178.89055060 -.00000681  00000+0 -15228-4 0  9995
2 59458  43.0014  33.5680 0001466 266.3189  93.7495 15.27577232 69555
STARLINK-31631          
1 59459U 24068E   25179.58201727  .00000281  00000+0  19737-4 0  9999
2 59459  43.0018  25.8334 0001685 288.1507  71.9161 15.27567742 69709
STARLINK-31620          
1 59460U 24068F   25178.88460276 -.00005213  00000+0 -18012-3 0  9995
2 59460  43.0015  30.0631 0001443 264.5439  95.5248 15.27563130 69592
STARLINK-31511          
1 59462U 24068H   25178.30849236 -.00000375  00000+0 -41265-5 0  9993
2 59462  43.0005  36.9398 0000936 265.3141  94.7604 15.27573330 69469
STARLINK-31364          
1 59463U 24068J   25178.87046861 -.00001126  00000+0 -31389-4 0  9999
2 59463  43.0022  29.9534 0002663 259.4541 100.6011 15.27572945 69594
STARLINK-31597          
1 59464U 24068K   25178.88669419 -.00001057  00000+0 -28917-4 0  9997
2 59464  43.0017  33.5361 0001276 276.3280  83.7426 15.27569284 69509
STARLINK-31621          
1 59465U 24068L   25178.95850459 -.00000638  00000+0 -13660-4 0  9995
2 59465  43.0000  33.2280 0000648 286.3614  73.7166 15.27575819 69559
STARLINK-31462          
1 59466U 24068M   25178.29050776 -.00000820  00000+0 -20307-4 0  9996
2 59466  42.9955  36.7841 0000602  23.5630 336.5249 15.27574198 69468
STARLINK-31592          
1 59467U 24068N   25178.31620428 -.00000489  00000+0 -82622-5 0  9997
2 59467  43.0054  36.9911 0000904 266.5980  93.4768 15.27574418 69463
STARLINK-31267          
1 59468U 24068P   25178.64861761 -.00001159  00000+0 -32616-4 0  9993
2 59468  43.0040  30.8579 0000917 272.5159  87.5588 15.27566955 69563
STARLINK-31381          
1 59469U 24068Q   25178.95769643 -.00000012  00000+0  90969-5 0  9996
2 59469  43.0044  29.7437 0001276 252.8214 107.2498 15.27578779 69602
STARLINK-31546          
1 59470U 24068R   25178.93842298  .00001060  00000+0  48046-4 0  9995
2 59470  42.9997  29.6033 0001023 287.7512  72.3228 15.27580098 69608
STARLINK-31575          
1 59471U 24068S   25179.01152806  .00000029  00000+0  10577-4 0  9997
2 59471  43.0026  29.2915 0000346 352.5794   7.5053 15.27575005 69618
STARLINK-31610          
1 59473U 24068U   25179.00204723  .00000163  00000+0  15458-4 0  9996
2 59473  43.0015  32.6738 0001270 269.1573  90.9133 15.27575848 69579
STARLINK-31581          
1 59474U 24068V   25178.87095210 -.00000115  00000+0  53243-5 0  9993
2 59474  43.0027  26.4741 0000796 275.6198  84.4562 15.27576576 69635
STARLINK-31566          
1 59475U 24068W   25178.87511993  .00000683  00000+0  34336-4 0  9995
2 59475  43.0012  33.4372 0001207 248.6709 111.4014 15.27582400 69551
STARLINK-31515          
1 59476U 24068X   25179.01360854 -.00000126  00000+0  49369-5 0  9997
2 59476  43.0006  32.7605 0001107 264.7511  95.3214 15.27572820 69563
STARLINK-31531          
1 59477U 24068Y   25179.49980930 -.00004304  00000+0 -14689-3 0  9991
2 59477  43.0014 334.8881 0001408 237.7865 122.2851 15.27594579 70273
STARLINK-31753          
1 59484U 24071A   25179.46014128 -.00002882  00000+0 -95254-4 0  9994
2 59484  43.0009 335.5662 0001273 278.7658  81.3049 15.27582281 69285
STARLINK-31733          
1 59486U 24071C   25179.16904354 -.00000604  00000+0 -12422-4 0  9998
2 59486  43.0029 336.8345 0001697 270.9657  89.1000 15.27573883 69252
STARLINK-31657          
1 59487U 24071D   25179.44730263 -.00001444  00000+0 -42979-4 0  9999
2 59487  43.0022 335.4802 0002056 272.9951  87.0665 15.27565197 69330
STARLINK-31754          
1 59488U 24071E   25179.17593282  .00000654  00000+0  33300-4 0  9996
2 59488  43.0048 344.6660 0001285 276.6854  83.3851 15.27572927 69200
STARLINK-31638          
1 59489U 24071F   25179.51139776 -.00000056  00000+0  74732-5 0  9991
2 59489  42.9999 335.0953 0001247 232.5896 127.4842 15.27568380 69307
STARLINK-31670          
1 59490U 24071G   25179.53065852 -.00000855  00000+0 -21543-4 0  9997
2 59490  43.0018 346.5074 0001218 254.3757 105.6961 15.27571581 69172
STARLINK-31712          
1 59491U 24071H   25179.46654872  .00000156  00000+0  15207-4 0  9998
2 59491  43.0015 346.8647 0001383 235.0997 124.9725 15.27575086 69204
STARLINK-31684          
1 59492U 24071J   25179.50672409 -.00004696  00000+0 -16122-3 0  9991
2 59492  43.0030 342.8468 0000734 261.2819  98.7950 15.27583892 69215
STARLINK-31678          
1 59493U 24071K   25179.51442634 -.00013189  00000+0 -46979-3 0  9998
2 59493  43.0053 342.9039 0001538 247.6243 112.4446 15.27635432 69276
STARLINK-31744          
1 59494U 24071L   25178.52977740 -.00000031  00000+0  84152-5 0  9998
2 59494  43.0032 348.4124 0001353 267.2361  92.8336 15.27572063 69059
STARLINK-31719          
1 59495U 24071M   25179.47300133 -.00001894  00000+0 -59336-4 0  9994
2 59495  42.9996 335.6732 0001076 276.1257  83.9472 15.27567038 69345
STARLINK-31728          
1 59496U 24071N   25178.73200624  .00022562  00000+0  84786-3 0  9996
2 59496  42.9995 339.5711 0001464 261.0567  99.0119 15.26753545 69214
STARLINK-31720          
1 59497U 24071P   25179.48971133  .00006076  00000+0  23045-3 0  9993
2 59497  43.0004 335.8005 0001132 248.6924 111.3807 15.27532257 69299
STARLINK-31731          
1 59498U 24071Q   25179.49469626 -.00000716  00000+0 -16520-4 0  9992
2 59498  43.0011 334.9730 0001130 244.0688 116.0048 15.27567893 69347
STARLINK-31742          
1 59499U 24071R   25179.50368680 -.00000176  00000+0  31211-5 0  9997
2 59499  42.9992 335.0369 0001483 209.8751 150.2016 15.27570112 69292
STARLINK-31512          
1 59500U 24071S   25179.02666211 -.00290312  00000+0 -96086-2 0  9990
2 59500  43.0009 297.8197 0004196  48.8729 311.2486 15.31806460 69697
STARLINK-31458          
1 59501U 24071T   25179.50882316 -.00021243  00000+0 -76267-3 0  9995
2 59501  43.0056 335.0835 0001554 241.6572 118.4123 15.27662770 69298
STARLINK-31357          
1 59502U 24071U   25179.48070487 -.00001214  00000+0 -34633-4 0  9999
2 59502  42.9950 335.7254 0000871 267.9345  92.1406 15.27572738 69344
STARLINK-31508          
1 59503U 24071V   25179.15762972 -.00001439  00000+0 -42808-4 0  9993
2 59503  42.9978 337.6027 0000754 244.8791 115.1982 15.27572910 69238
STARLINK-31535          
1 59504U 24071W   25179.51828266 -.00002418  00000+0 -78393-4 0  9999
2 59504  43.0001 342.9258 0000849 205.8777 154.2032 15.27577311 69206
STARLINK-31533          
1 59505U 24071X   25179.16534522 -.00001424  00000+0 -42269-4 0  9999
2 59505  43.0008 337.6627 0000448 241.2526 118.8280 15.27567468 69232
STARLINK-31524          
1 59506U 24071Y   25179.14057336  .00000037  00000+0  10888-4 0  9990
2 59506  43.0032 330.3584 0001246 278.7449  81.3262 15.27574756 69320
STARLINK-31635          
1 59511U 24073A   25179.09868886 -.00000608  00000+0 -12574-4 0  9992
2 59511  43.0020 315.4395 0001211 273.4118  86.6595 15.27574820 68467
STARLINK-31650          
1 59512U 24073B   25179.39622772  .00010900  00000+0  40578-3 0  9996
2 59512  42.9993 314.2304 0001919 259.5659 100.4976 15.27517904 68493
STARLINK-31658          
1 59513U 24073C   25178.96650656  .00000291  00000+0  20111-4 0  9995
2 59513  43.0012 276.2851 0001529 270.3612  89.7065 15.27569123 68789
